OBJECT_NAME,OBJECT_ID,EPOCH,MEAN_MOTION,ECCENTRICITY,INCLINATION,RA_OF_ASC_NODE,ARG_OF_PERICENTER,MEAN_ANOMALY,EPHEMERIS_TYPE,CLASSIFICATION_TYPE,NORAD_CAT_ID,ELEMENT_SET_NO,REV_AT_EPOCH,BSTAR,MEAN_MOTION_DOT,MEAN_MOTION_DDOT
BEIDOU-3S IGSO-1S (C31),2015-019A,2026-06-27T19:18:18.518400,1.00249344,.00390983,49.1741,295.3331,191.8080,168.8013,0,U,40549,999,4118,0,-.163E-5,0
GPS BIIF-10 (PRN 08),2015-033A,2026-06-28T16:31:50.568672,2.00555814,.01151416,53.9734,266.6121,30.2336,330.4845,0,U,40730,999,8022,0,-.14E-6,0
BEIDOU-3S M2S (C58),2015-037A,2026-06-28T14:22:59.380032,1.86232293,.00085671,54.8599,301.6527,258.3318,101.5721,0,U,40748,999,7433,0,-.84E-6,0
BEIDOU-3S M1S (C57),2015-037B,2026-06-27T04:40:16.991040,1.86255050,.00032195,54.8580,301.6893,62.4123,297.6156,0,U,40749,999,7431,0,-.96E-6,0
GSAT0206 (GALILEO 10),2015-045B,2026-06-28T14:27:26.505504,1.70473821,.00018243,54.9424,221.2890,328.9873,31.0992,0,U,40890,999,6723,0,.7E-6,0
BEIDOU-3S IGSO-2S (C56),2015-053A,2026-06-28T23:16:41.401632,1.00257545,.00656677,49.2020,258.6412,193.1508,268.9330,0,U,40938,999,3947,0,-.99E-6,0
GPS BIIF-11 (PRN 10),2015-062A,2026-06-26T18:00:06.016032,2.00567519,.01121888,56.9659,30.4428,230.9710,128.0791,0,U,41019,999,7802,0,-.8E-6,0
GSAT-15 (GAGAN/PRN 139),2015-065A,2026-06-29T09:26:04.353216,1.00270216,.0004573,0.0460,260.9515,177.8217,73.7309,0,U,41028,999,3892,0,-.246E-5,0
GSAT0209 (GALILEO 12),2015-079A,2026-06-28T04:24:50.829696,1.70473803,.00050857,55.8335,100.9603,347.1897,12.7761,0,U,41174,999,6496,0,-.33E-6,0
GSAT0208 (GALILEO 11),2015-079B,2026-06-26T01:23:22.771680,1.70473681,.0004595,55.8311,101.0154,354.0123,5.9555,0,U,41175,999,6534,0,-.39E-6,0
IRNSS-1E,2016-003A,2026-06-25T14:21:38.812032,1.00274592,.00190622,33.2517,59.6282,179.1130,2.2203,0,U,41241,999,3816,0,-.319E-5,0
GPS BIIF-12 (PRN 32),2016-007A,2026-06-28T08:06:03.176928,2.00551379,.00956049,55.5304,89.0177,247.1405,111.8582,0,U,41328,999,7606,0,-.53E-6,0
COSMOS 2514 (751),2016-008A,2026-06-29T11:39:43.965792,2.13102772,.0011738,65.0137,312.5846,199.3082,160.6408,0,U,41330,999,8088,0,-.67E-6,0
BEIDOU-2 IGSO-6 (C13),2016-021A,2026-06-26T02:38:38.671584,1.00258926,.0057558,60.2385,37.9495,231.0163,137.2672,0,U,41434,999,3757,0,-.145E-5,0
IRNSS-1G,2016-027A,2026-06-29T07:30:51.700032,1.00281539,.0005822,5.2246,97.1943,4.7805,57.5633,0,U,41469,999,3730,0,-.328E-5,0
GSAT0211 (GALILEO 14),2016-030A,2026-06-27T22:35:47.691744,1.70474008,.00031164,55.0927,221.3989,320.4926,39.5816,0,U,41549,999,6285,0,.69E-6,0
GSAT0210 (GALILEO 13),2016-030B,2026-06-27T00:36:53.275104,1.70473957,.00077922,55.0912,221.4221,256.4220,103.5859,0,U,41550,999,6283,0,.65E-6,0
BEIDOU-2 G7 (C03),2016-037A,2026-06-29T09:30:56.386080,1.00271246,.0006835,1.7497,69.4211,2.6211,98.7279,0,U,41586,999,701,0,-.344E-5,0
EUTELSAT 117 WEST B (WAAS/PRN 131),2016-038B,2026-06-29T08:09:02.716128,1.00269030,.0000302,0.0117,154.8955,101.3092,26.4883,0,U,41589,999,3678,0,0,0
GSAT0207 (GALILEO 15),2016-069A,2026-06-26T17:13:02.065728,1.70473700,.00050068,55.5042,100.8225,333.0982,26.8500,0,U,41859,999,5956,0,-.38E-6,0
GSAT0212 (GALILEO 16),2016-069B,2026-06-28T07:56:01.576320,1.70473934,.00044344,55.5028,100.7730,6.1382,353.8467,0,U,41860,999,5984,0,-.33E-6,0
GSAT0213 (GALILEO 17),2016-069C,2026-06-28T02:40:06.685536,1.70474290,.00045371,55.5047,100.7870,315.9585,43.9839,0,U,41861,999,5970,0,-.34E-6,0
GSAT0214 (GALILEO 18),2016-069D,2026-06-28T06:10:43.038048,1.70473610,.00035484,55.5035,100.7756,328.2164,31.7414,0,U,41862,999,5983,0,-.33E-6,0
SES-15 (WAAS/PRN 133),2017-026A,2026-06-29T11:41:38.747328,1.00275391,.0001,0.0206,334.5743,149.5569,199.6934,0,U,42709,999,755,0,.7E-6,0
QZS-2 (QZSS/PRN 194),2017-028A,2026-06-29T11:25:15.815136,1.00280731,.0758904,39.4087,242.9730,269.4027,78.6029,0,U,42738,999,774,0,-.118E-5,0
QZS-3 (QZSS/PRN 199),2017-048A,2026-06-29T13:12:38.727072,1.00270669,.0002306,0.0725,142.2624,313.5386,147.0345,0,U,42917,999,3238,0,-.337E-5,0
COSMOS 2522 (752),2017-055A,2026-06-24T03:53:00.968064,2.13101107,.00084097,64.0776,191.6387,235.5259,124.4452,0,U,42939,999,6812,0,.104E-5,0
QZS-4 (QZSS/PRN 195),2017-062A,2026-06-29T07:53:37.169088,1.00296103,.0746687,40.1013,343.3312,268.3033,282.2636,0,U,42965,999,3192,0,-.337E-5,0
BEIDOU-3 M1 (C19),2017-069A,2026-06-28T09:49:08.918400,1.86231517,.00098607,56.7017,62.7147,326.3987,33.5922,0,U,43001,999,5881,0,-.66E-6,0
BEIDOU-3 M2 (C20),2017-069B,2026-06-28T08:20:59.354016,1.86230801,.00088843,56.7014,62.7523,352.9823,7.0583,0,U,43002,999,5880,0,-.66E-6,0
GSAT0215 (GALILEO 19),2017-079A,2026-06-28T03:51:18.726624,1.70474711,.00031009,55.0711,221.2046,263.9664,96.0952,0,U,43055,999,5317,0,.69E-6,0
